#aV2011  2 28  0  0   .00000000      96 DD+AD WGS84 FIT  NGA
## 1625  86400.00000000   900.00000000 55620  .0000000000000
+   32     1  2  3  4  5  6  7  8  9 10 11 12 13 14 15 16 17
+         18 19 20 21 22 23 24 25 26 27 28 29 30 31 32  0  0
+          0  0  0  0  0  0  0  0  0  0  0  0  0  0  0  0  0
+          0  0  0  0  0  0  0  0  0  0  0  0  0  0  0  0  0
+          0  0  0  0  0  0  0  0  0  0  0  0  0  0  0  0  0
++         0  0  0  0  0  0  0  0  0  0  0  0  0  0  0  0  0
++         0  0  0  0  0  0  0  0  0  0  0  0  0  0  0  0  0
++         0  0  0  0  0  0  0  0  0  0  0  0  0  0  0  0  0
++         0  0  0  0  0  0  0  0  0  0  0  0  0  0  0  0  0
++         0  0  0  0  0  0  0  0  0  0  0  0  0  0  0  0  0
%c cc cc ccc ccc cccc cccc cccc cccc ccccc ccccc ccccc ccccc
%c cc cc ccc ccc cccc cccc cccc cccc ccccc ccccc ccccc ccccc
%f  0.0000000  0.000000000  0.00000000000  0.000000000000000
%f  0.0000000  0.000000000  0.00000000000  0.000000000000000
%i    0    0    0    0      0      0      0      0         0
%i    0    0    0    0      0      0      0      0         0
/*      NGA, ST. LOUIS,MO.                                  
/*   EPHEMERIS COMPUTED FROM  3 DAYS OF DATA                
/* CCCCCCCCCCCCCCCCCCCCCCCCCCCCCCCCCCCCCCCCCCCCCCCCCCCCCCCCC
/* CCCCCCCCCCCCCCCCCCCCCCCCCCCCCCCCCCCCCCCCCCCCCCCCCCCCCCCCC
*  2011  2 28 11 45   .00000000                                                 
P  1  -6496.087342  25388.141755   3717.612908   -211.855236                    
V  1  -1922.630012  -5227.328411  31532.090589      -.029185                    
P  2  -8439.556276 -20479.398956  15022.795546    322.733893                    
V  2  16259.089494   9882.629373  22158.960369       .019896                    
P  3   3309.013115  16194.184721 -21156.533298    682.020279                    
V  3 -23352.623132  11703.588905   5734.925772       .050738                    
P  4   4295.267357 -15896.446356  20569.505520     47.819153                    
V  4  21510.051837  15933.700160   8092.400575       .102887                    
P  5  -2703.176756 -24769.771106  -9063.853680   -121.742650                    
V  5   4527.807836 -10964.798771  28780.824688      -.059057                    
P  6  -2257.745270  17131.446086 -19957.308229    127.441379                    
V  6 -24140.055990   9335.430771  10862.460307     -1.390815                    
P  7  19811.797832    585.871733 -17773.354408      4.558238                    
V  7  16582.962727  15215.803477  18784.058991       .008224                    
P  8  12491.191730  -7897.712841 -22093.667363      7.462327                    
V  8  20302.711846  19219.012496   4077.069582      -.000018                    
P  9 -21501.487217 -15498.241518   1233.285900     64.655708                    
V  9   -467.862436  -3043.255586 -32186.316362       .024822                    
P 10   8162.341994 -24463.867330   5245.207590    -67.503563                    
V 10   2145.256713   7501.113111  30790.907920      -.011107                    
P 11  23993.288608  11803.424071   -953.701975   -130.724193                    
V 11  -2750.044293   3960.172668 -29822.358342      -.029532                    
P 12 -11853.538692 -12517.221350  20286.280083    -23.080794                    
V 12   5130.363102 -25093.679865 -12340.870175       .032230                    
P 13  25784.643589  -5039.982108   3927.763459    280.816210                    
V 13  -4407.819909   3209.155752  31863.404451      -.014150                    
P 14 -18446.018166  14625.292649  12322.735388    134.422904                    
V 14 -15208.100849   3074.068195 -26879.010946       .025288                    
P 15 -17747.897440  -7028.059739 -18521.790663   -147.460081                    
V 15  21192.367581 -10307.428681 -16225.732846       .033370                    
P 16   -230.083553  25545.014762  -6654.089187   -154.105344                    
V 16  -4047.794379   7934.547924  30736.970471      -.029028                    
P 17  18940.401610 -14902.241774  11034.572990    183.520260                    
V 17  13951.833436  -2243.948169 -27516.672473       .003054                    
P 18 -15350.497509  11825.604848 -17703.143610    123.942026                    
V 18   1714.607490 -23358.948671 -17175.998031       .020359                    
P 19  13862.760438  10617.362403 -20104.086042   -115.550733                    
V 19 -24140.172907   8104.178782 -12031.000352      -.037036                    
P 20  14648.728190   7227.435376  20804.796804     48.662197                    
V 20  -3892.522155  26579.423415  -6379.846207       .000149                    
P 21 -20053.743365    178.562520 -17319.104907   -127.106760                    
V 21 -16278.338665 -15816.237378  17664.847019      -.026900                    
P 22 -11309.936775  21793.662134  -9838.846062    152.547502                    
V 22  -1141.878680 -13220.452553 -27606.987685      -.006305                    
P 23  22109.718943   2598.863303  14732.272565    323.146907                    
V 23 -16771.917660   8160.548576  23396.351579      -.024345                    
P 24  21789.941776  14582.518126   5132.884552    369.310422                    
V 24   2848.744879   6420.571496 -30412.322185       .033305                    
P 25 -15470.224217   3908.306025  21218.919310    -69.719506                    
V 25   3134.808831 -26793.150654   7227.058325      -.011455                    
P 26  -4739.974065 -14105.770915 -22586.635192   -132.824981                    
V 26  26053.202478  -7763.842326   -225.427738      -.098678                    
P 27 -20092.560491 -17204.897664  -3087.603274    241.061388                    
V 27   4977.560207   1166.040554 -31683.504641       .035314                    
P 28  12556.746619 -19172.810729 -12674.187043     22.522949                    
V 28  -1011.536514  17138.816626 -26145.755834       .021179                    
P 29 -25329.523065   3429.667877   7222.074193    188.857111                    
V 29   7707.190607  -5471.633600  30005.172291       .028447                    
P 30  -3095.565727  26353.103462    221.309997    325.444978                    
V 30  -2805.147376  -1085.732421  31741.206508       .030334                    
P 31  -1636.961867  16680.336161  20760.753835     47.169604                    
V 31 -20572.886322 -15738.993115  11338.438645       .047991                    
P 32   9574.179211  16675.272198  18781.750920   -205.505459                    
V 32  -6719.835257  22160.202753 -16107.452682      -.077146                    
EOF
